CCSDS_OMM_VERS = 2.0
CREATION_DATE  = 
ORIGINATOR     = 

OBJECT_NAME    = STARLINK-36641
OBJECT_ID      = 2026-018A
CENTER_NAME    = EARTH
REF_FRAME      = TEME
TIME_SYSTEM    = UTC
MEAN_ELEMENT_THEORY = SGP/SGP4

EPOCH          = 2026-02-27T21:37:12.623520
MEAN_MOTION    = 15.75251015
ECCENTRICITY   = .00021617
INCLINATION    = 97.2836
RA_OF_ASC_NODE = 124.1778
ARG_OF_PERICENTER = 82.7148
MEAN_ANOMALY   = 277.4363

EPHEMERIS_TYPE = 0
CLASSIFICATION_TYPE = U
NORAD_CAT_ID   = 67589
ELEMENT_SET_NO = 999
REV_AT_EPOCH   = 576
BSTAR          = .17046942E-2
MEAN_MOTION_DOT = .262815E-2
MEAN_MOTION_DDOT = 0

CCSDS_OMM_VERS = 2.0
CREATION_DATE  = 
ORIGINATOR     = 

OBJECT_NAME    = STARLINK-36376
OBJECT_ID      = 2026-018B
CENTER_NAME    = EARTH
REF_FRAME      = TEME
TIME_SYSTEM    = UTC
MEAN_ELEMENT_THEORY = SGP/SGP4

EPOCH          = 2026-02-27T10:30:55.753920
MEAN_MOTION    = 15.75211915
ECCENTRICITY   = .00028832
INCLINATION    = 97.2844
RA_OF_ASC_NODE = 123.7358
ARG_OF_PERICENTER = 107.5781
MEAN_ANOMALY   = 252.5800

EPHEMERIS_TYPE = 0
CLASSIFICATION_TYPE = U
NORAD_CAT_ID   = 67590
ELEMENT_SET_NO = 999
REV_AT_EPOCH   = 569
BSTAR          = .16317267E-2
MEAN_MOTION_DOT = .250793E-2
MEAN_MOTION_DDOT = 0

CCSDS_OMM_VERS = 2.0
CREATION_DATE  = 
ORIGINATOR     = 

OBJECT_NAME    = STARLINK-36391
OBJECT_ID      = 2026-018C
CENTER_NAME    = EARTH
REF_FRAME      = TEME
TIME_SYSTEM    = UTC
MEAN_ELEMENT_THEORY = SGP/SGP4

EPOCH          = 2026-02-27T20:00:01.999872
MEAN_MOTION    = 15.75273326
ECCENTRICITY   = .00016361
INCLINATION    = 97.2851
RA_OF_ASC_NODE = 124.2304
ARG_OF_PERICENTER = 84.9418
MEAN_ANOMALY   = 178.7654

EPHEMERIS_TYPE = 0
CLASSIFICATION_TYPE = U
NORAD_CAT_ID   = 67591
ELEMENT_SET_NO = 999
REV_AT_EPOCH   = 581
BSTAR          = -.12098216E-2
MEAN_MOTION_DOT = -.177536E-2
MEAN_MOTION_DDOT = 0

CCSDS_OMM_VERS = 2.0
CREATION_DATE  = 
ORIGINATOR     = 

OBJECT_NAME    = STARLINK-36603
OBJECT_ID      = 2026-018D
CENTER_NAME    = EARTH
REF_FRAME      = TEME
TIME_SYSTEM    = UTC
MEAN_ELEMENT_THEORY = SGP/SGP4

EPOCH          = 2026-02-27T14:59:15.782208
MEAN_MOTION    = 15.75253547
ECCENTRICITY   = .00011373
INCLINATION    = 97.2837
RA_OF_ASC_NODE = 123.9413
ARG_OF_PERICENTER = 282.9022
MEAN_ANOMALY   = 77.2116

EPHEMERIS_TYPE = 0
CLASSIFICATION_TYPE = U
NORAD_CAT_ID   = 67592
ELEMENT_SET_NO = 999
REV_AT_EPOCH   = 572
BSTAR          = .14685334E-2
MEAN_MOTION_DOT = .22541E-2
MEAN_MOTION_DDOT = 0

CCSDS_OMM_VERS = 2.0
CREATION_DATE  = 
ORIGINATOR     = 

OBJECT_NAME    = STARLINK-36634
OBJECT_ID      = 2026-018E
CENTER_NAME    = EARTH
REF_FRAME      = TEME
TIME_SYSTEM    = UTC
MEAN_ELEMENT_THEORY = SGP/SGP4

EPOCH          = 2026-02-27T14:48:06.012864
MEAN_MOTION    = 15.75306357
ECCENTRICITY   = .00018582
INCLINATION    = 97.2838
RA_OF_ASC_NODE = 123.9525
ARG_OF_PERICENTER = 59.6015
MEAN_ANOMALY   = 300.5434

EPHEMERIS_TYPE = 0
CLASSIFICATION_TYPE = U
NORAD_CAT_ID   = 67593
ELEMENT_SET_NO = 999
REV_AT_EPOCH   = 572
BSTAR          = .2606103E-2
MEAN_MOTION_DOT = .409895E-2
MEAN_MOTION_DDOT = 0

CCSDS_OMM_VERS = 2.0
CREATION_DATE  = 
ORIGINATOR     = 

OBJECT_NAME    = STARLINK-36638
OBJECT_ID      = 2026-018F
CENTER_NAME    = EARTH
REF_FRAME      = TEME
TIME_SYSTEM    = UTC
MEAN_ELEMENT_THEORY = SGP/SGP4

EPOCH          = 2026-02-27T20:00:01.999872
MEAN_MOTION    = 15.75185613
ECCENTRICITY   = .00015965
INCLINATION    = 97.2850
RA_OF_ASC_NODE = 124.2403
ARG_OF_PERICENTER = 82.0275
MEAN_ANOMALY   = 203.6972

EPHEMERIS_TYPE = 0
CLASSIFICATION_TYPE = U
NORAD_CAT_ID   = 67594
ELEMENT_SET_NO = 999
REV_AT_EPOCH   = 576
BSTAR          = .16429057E-3
MEAN_MOTION_DOT = .24441E-3
MEAN_MOTION_DDOT = 0

CCSDS_OMM_VERS = 2.0
CREATION_DATE  = 
ORIGINATOR     = 

OBJECT_NAME    = STARLINK-36628
OBJECT_ID      = 2026-018G
CENTER_NAME    = EARTH
REF_FRAME      = TEME
TIME_SYSTEM    = UTC
MEAN_ELEMENT_THEORY = SGP/SGP4

EPOCH          = 2026-02-27T15:13:27.365664
MEAN_MOTION    = 15.75421569
ECCENTRICITY   = .00015044
INCLINATION    = 97.2837
RA_OF_ASC_NODE = 123.9269
ARG_OF_PERICENTER = 238.9959
MEAN_ANOMALY   = 121.1158

EPHEMERIS_TYPE = 0
CLASSIFICATION_TYPE = U
NORAD_CAT_ID   = 67595
ELEMENT_SET_NO = 999
REV_AT_EPOCH   = 572
BSTAR          = .25809427E-2
MEAN_MOTION_DOT = .407868E-2
MEAN_MOTION_DDOT = 0

CCSDS_OMM_VERS = 2.0
CREATION_DATE  = 
ORIGINATOR     = 

OBJECT_NAME    = STARLINK-36629
OBJECT_ID      = 2026-018H
CENTER_NAME    = EARTH
REF_FRAME      = TEME
TIME_SYSTEM    = UTC
MEAN_ELEMENT_THEORY = SGP/SGP4

EPOCH          = 2026-02-27T21:30:36.823392
MEAN_MOTION    = 15.75262665
ECCENTRICITY   = .00039613
INCLINATION    = 97.2838
RA_OF_ASC_NODE = 124.1831
ARG_OF_PERICENTER = 72.8631
MEAN_ANOMALY   = 287.3068

EPHEMERIS_TYPE = 0
CLASSIFICATION_TYPE = U
NORAD_CAT_ID   = 67596
ELEMENT_SET_NO = 999
REV_AT_EPOCH   = 576
BSTAR          = .23344364E-2
MEAN_MOTION_DOT = .364537E-2
MEAN_MOTION_DDOT = 0

CCSDS_OMM_VERS = 2.0
CREATION_DATE  = 
ORIGINATOR     = 

OBJECT_NAME    = STARLINK-36384
OBJECT_ID      = 2026-018J
CENTER_NAME    = EARTH
REF_FRAME      = TEME
TIME_SYSTEM    = UTC
MEAN_ELEMENT_THEORY = SGP/SGP4

EPOCH          = 2026-02-27T22:04:39.487872
MEAN_MOTION    = 15.75241853
ECCENTRICITY   = .00014684
INCLINATION    = 97.2851
RA_OF_ASC_NODE = 124.3056
ARG_OF_PERICENTER = 89.7026
MEAN_ANOMALY   = 270.4408

EPHEMERIS_TYPE = 0
CLASSIFICATION_TYPE = U
NORAD_CAT_ID   = 67597
ELEMENT_SET_NO = 999
REV_AT_EPOCH   = 577
BSTAR          = .16515175E-2
MEAN_MOTION_DOT = .254251E-2
MEAN_MOTION_DDOT = 0

CCSDS_OMM_VERS = 2.0
CREATION_DATE  = 
ORIGINATOR     = 

OBJECT_NAME    = STARLINK-36358
OBJECT_ID      = 2026-018K
CENTER_NAME    = EARTH
REF_FRAME      = TEME
TIME_SYSTEM    = UTC
MEAN_ELEMENT_THEORY = SGP/SGP4

EPOCH          = 2026-02-27T15:16:02.742240
MEAN_MOTION    = 15.75259068
ECCENTRICITY   = .00018018
INCLINATION    = 97.2844
RA_OF_ASC_NODE = 123.9253
ARG_OF_PERICENTER = 55.5359
MEAN_ANOMALY   = 304.6077

EPHEMERIS_TYPE = 0
CLASSIFICATION_TYPE = U
NORAD_CAT_ID   = 67598
ELEMENT_SET_NO = 999
REV_AT_EPOCH   = 572
BSTAR          = .1472665E-2
MEAN_MOTION_DOT = .226119E-2
MEAN_MOTION_DDOT = 0

CCSDS_OMM_VERS = 2.0
CREATION_DATE  = 
ORIGINATOR     = 

OBJECT_NAME    = STARLINK-36582
OBJECT_ID      = 2026-018L
CENTER_NAME    = EARTH
REF_FRAME      = TEME
TIME_SYSTEM    = UTC
MEAN_ELEMENT_THEORY = SGP/SGP4

EPOCH          = 2026-02-27T10:19:14.165184
MEAN_MOTION    = 15.75234670
ECCENTRICITY   = .00020028
INCLINATION    = 97.2857
RA_OF_ASC_NODE = 123.7475
ARG_OF_PERICENTER = 104.8679
MEAN_ANOMALY   = 255.2808

EPHEMERIS_TYPE = 0
CLASSIFICATION_TYPE = U
NORAD_CAT_ID   = 67599
ELEMENT_SET_NO = 999
REV_AT_EPOCH   = 574
BSTAR          = .13585386E-2
MEAN_MOTION_DOT = .207921E-2
MEAN_MOTION_DDOT = 0

CCSDS_OMM_VERS = 2.0
CREATION_DATE  = 
ORIGINATOR     = 

OBJECT_NAME    = STARLINK-36640
OBJECT_ID      = 2026-018M
CENTER_NAME    = EARTH
REF_FRAME      = TEME
TIME_SYSTEM    = UTC
MEAN_ELEMENT_THEORY = SGP/SGP4

EPOCH          = 2026-02-27T15:21:37.048032
MEAN_MOTION    = 15.75296411
ECCENTRICITY   = .00019011
INCLINATION    = 97.2855
RA_OF_ASC_NODE = 123.9191
ARG_OF_PERICENTER = 270.9804
MEAN_ANOMALY   = 89.1243

EPHEMERIS_TYPE = 0
CLASSIFICATION_TYPE = U
NORAD_CAT_ID   = 67600
ELEMENT_SET_NO = 999
REV_AT_EPOCH   = 572
BSTAR          = .1714206E-2
MEAN_MOTION_DOT = .264863E-2
MEAN_MOTION_DDOT = 0

