STARLINK-36641          
1 67589U 26018A   26058.90084055  .00262815  00000+0  17047-2 0  9998
2 67589  97.2836 124.1778 0002161  82.7148 277.4363 15.75251015  5764
STARLINK-36376          
1 67590U 26018B   26058.43814530  .00250793  00000+0  16317-2 0  9998
2 67590  97.2844 123.7358 0002883 107.5781 252.5800 15.75211915  5691
STARLINK-36391          
1 67591U 26018C   26058.83335648 -.00177536  00000+0 -12098-2 0  9998
2 67591  97.2851 124.2304 0001636  84.9418 178.7654 15.75273326  5811
STARLINK-36603          
1 67592U 26018D   26058.62448822  .00225410  00000+0  14685-2 0  9992
2 67592  97.2837 123.9413 0001137 282.9022  77.2116 15.75253547  5729
STARLINK-36634          
1 67593U 26018E   26058.61673626  .00409895  00000+0  26061-2 0  9996
2 67593  97.2838 123.9525 0001858  59.6015 300.5434 15.75306357  5729
STARLINK-36638          
1 67594U 26018F   26058.83335648  .00024441  00000+0  16429-3 0  9998
2 67594  97.2850 124.2403 0001596  82.0275 203.6972 15.75185613  5764
STARLINK-36628          
1 67595U 26018G   26058.63434451  .00407868  00000+0  25809-2 0  9998
2 67595  97.2837 123.9269 0001504 238.9959 121.1158 15.75421569  5725
STARLINK-36629          
1 67596U 26018H   26058.89625953  .00364537  00000+0  23344-2 0  9993
2 67596  97.2838 124.1831 0003961  72.8631 287.3068 15.75262665  5765
STARLINK-36384          
1 67597U 26018J   26058.91990148  .00254251  00000+0  16515-2 0  9991
2 67597  97.2851 124.3056 0001468  89.7026 270.4408 15.75241853  5775
STARLINK-36358          
1 67598U 26018K   26058.63614285  .00226119  00000+0  14727-2 0  9991
2 67598  97.2844 123.9253 0001801  55.5359 304.6077 15.75259068  5727
STARLINK-36582          
1 67599U 26018L   26058.43002506  .00207921  00000+0  13585-2 0  9998
2 67599  97.2857 123.7475 0002002 104.8679 255.2808 15.75234670  5740
STARLINK-36640          
1 67600U 26018M   26058.64001213  .00264863  00000+0  17142-2 0  9999
2 67600  97.2855 123.9191 0001901 270.9804  89.1243 15.75296411  5726
